GLOBALSTAR M094         
1 39074U 13005C   24220.84554862 -.00000091  00000+0  74070-4 0  9996
2 39074  51.9965  56.1494 0000630  59.7604 300.3325 12.62266628532804
GLOBALSTAR M096         
1 39075U 13005D   24220.85881109 -.00000068  00000+0  20031-3 0  9996
2 39075  52.0069 104.3802 0000485  27.9637 332.1256 12.62268404531722
GLOBALSTAR M078         
1 39076U 13005E   24220.43649271 -.00000113  00000+0 -51928-4 0  9995
2 39076  51.9850 190.6015 0000776 192.3513 167.7334 12.62273572530298
GLOBALSTAR M095         
1 39077U 13005F   24220.46274411 -.00000112  00000+0 -44776-4 0  9991
2 39077  51.9778 187.8730 0000440 254.0852 105.9966 12.62262858530155
GLOBALSTAR M087         
1 52888U 22064A   24220.81688914 -.00000099  00000+0  56099-4 0  9991
2 52888  51.9771  28.3496 0009992 132.2542 227.9207 13.37580408104433
